{
    "type": "FeatureCollection",
    "metadata": {
        "generated": 1716875985000,
        "url": "https://earthquake.usgs.gov/earthquakes/feed/v1.0/summary/significant_month.geojson",
        "title": "USGS Significant Earthquakes, Past Month",
        "status": 200,
        "api": "1.10.3",
        "count": 7
    },
    "features": [
        {
            "type": "Feature",
            "properties": {
                "mag": 6.6,
                "place": "70 km NW of Fangale’ounga, Tonga",
                "time": 1716756429259,
                "updated": 1716843330551,
                "tz": null,
                "url": "https://earthquake.usgs.gov/earthquakes/eventpage/us6000n158",
                "detail": "https://earthquake.usgs.gov/earthquakes/feed/v1.0/detail/us6000n158.geojson",
                "felt": 11,
                "cdi": 5,
                "mmi": 6.219,
                "alert": "green",
                "status": "reviewed",
                "tsunami": 1,
                "sig": 676,
                "net": "us",
                "code": "6000n158",
                "ids": ",pt24147000,at00se41qg,us6000n158,",
                "sources": ",pt,at,us,",
                "types": ",dyfi,ground-failure,impact-link,losspager,moment-tensor,origin,phase-data,shakemap,",
                "nst": 102,
                "dmin": 4.679,
                "rms": 0.86,
                "gap": 21,
                "magType": "mww",
                "type": "earthquake",
                "title": "M 6.6 - 70 km NW of Fangale’ounga, Tonga"
            },
            "geometry": {
                "type": "Point",
                "coordinates": [
                    -174.8692,
                    -19.3769,
                    112.235
                ]
            },
            "id": "us6000n158"
        },
        {
            "type": "Feature",
            "properties": {
                "mag": 6.3,
                "place": "83 km NNW of Port-Vila, Vanuatu",
                "time": 1716675796981,
                "updated": 1716762849479,
                "tz": null,
                "url": "https://earthquake.usgs.gov/earthquakes/eventpage/us6000n102",
                "detail": "https://earthquake.usgs.gov/earthquakes/feed/v1.0/detail/us6000n102.geojson",
                "felt": 16,
                "cdi": 5,
                "mmi": 5.519,
                "alert": "green",
                "status": "reviewed",
                "tsunami": 1,
                "sig": 619,
                "net": "us",
                "code": "6000n102",
                "ids": ",pt24146000,at00se2biv,us6000n102,",
                "sources": ",pt,at,us,",
                "types": ",dyfi,ground-failure,impact-link,losspager,moment-tensor,origin,phase-data,shakemap,",
                "nst": 169,
                "dmin": 4.83,
                "rms": 0.77,
                "gap": 28,
                "magType": "mww",
                "type": "earthquake",
                "title": "M 6.3 - 83 km NNW of Port-Vila, Vanuatu"
            },
            "geometry": {
                "type": "Point",
                "coordinates": [
                    167.8842,
                    -17.1088,
                    29.182
                ]
            },
            "id": "us6000n102"
        },
        {
            "type": "Feature",
            "properties": {
                "mag": 4.05,
                "place": "17 km SE of Ocotillo Wells, CA",
                "time": 1716207456030,
                "updated": 1716553935413,
                "tz": null,
                "url": "https://earthquake.usgs.gov/earthquakes/eventpage/ci40593503",
                "detail": "https://earthquake.usgs.gov/earthquakes/feed/v1.0/detail/ci40593503.geojson",
                "felt": 1008,
                "cdi": 4.3,
                "mmi": 4.624,
                "alert": "green",
                "status": "reviewed",
                "tsunami": 1,
                "sig": 682,
                "net": "ci",
                "code": "40593503",
                "ids": ",ew1716207460,ci40593503,at00sdsa5b,us6000mzt0,",
                "sources": ",ew,ci,at,us,",
                "types": ",dyfi,focal-mechanism,impact-link,losspager,moment-tensor,nearby-cities,origin,phase-data,scitech-link,shake-alert,shakemap,",
                "nst": 83,
                "dmin": 0.1439,
                "rms": 0.25,
                "gap": 20,
                "magType": "mw",
                "type": "earthquake",
                "title": "M 4.1 - 17 km SE of Ocotillo Wells, CA"
            },
            "geometry": {
                "type": "Point",
                "coordinates": [
                    -116.0046667,
                    33.028,
                    11.18
                ]
            },
            "id": "ci40593503"
        },
        {
            "type": "Feature",
            "properties": {
                "mag": 4.02,
                "place": "9 km SE of Blue Lake, CA",
                "time": 1715755143840,
                "updated": 1715981643993,
                "tz": null,
                "url": "https://earthquake.usgs.gov/earthquakes/eventpage/nc75006996",
                "detail": "https://earthquake.usgs.gov/earthquakes/feed/v1.0/detail/nc75006996.geojson",
                "felt": 926,
                "cdi": 4.1,
                "mmi": 3.213,
                "alert": "green",
                "status": "reviewed",
                "tsunami": 0,
                "sig": 628,
                "net": "nc",
                "code": "75006996",
                "ids": ",nc75006996,us6000mypi,",
                "sources": ",nc,us,",
                "types": ",dyfi,focal-mechanism,losspager,moment-tensor,nearby-cities,origin,phase-data,shakemap,",
                "nst": 47,
                "dmin": 0.09753,
                "rms": 0.15,
                "gap": 34,
                "magType": "mw",
                "type": "earthquake",
                "title": "M 4.0 - 9 km SE of Blue Lake, CA"
            },
            "geometry": {
                "type": "Point",
                "coordinates": [
                    -123.901833333333,
                    40.8283333333333,
                    25.58
                ]
            },
            "id": "nc75006996"
        },
        {
            "type": "Feature",
            "properties": {
                "mag": 5.6,
                "place": "92 km NNW of San Antonio, Puerto Rico",
                "time": 1715733011410,
                "updated": 1716856826129,
                "tz": null,
                "url": "https://earthquake.usgs.gov/earthquakes/eventpage/pr2024136000",
                "detail": "https://earthquake.usgs.gov/earthquakes/feed/v1.0/detail/pr2024136000.geojson",
                "felt": 300,
                "cdi": 5.4,
                "mmi": null,
                "alert": null,
                "status": "reviewed",
                "tsunami": 0,
                "sig": 644,
                "net": "pr",
                "code": "2024136000",
                "ids": ",pt24136050,us6000mymq,pr2024136000,",
                "sources": ",pt,us,pr,",
                "types": ",dyfi,moment-tensor,oaf,origin,phase-data,",
                "nst": 32,
                "dmin": 0.8609,
                "rms": 0.43,
                "gap": 191,
                "magType": "ml",
                "type": "earthquake",
                "title": "M 5.6 - 92 km NNW of San Antonio, Puerto Rico"
            },
            "geometry": {
                "type": "Point",
                "coordinates": [
                    -67.4235,
                    19.2698,
                    7
                ]
            },
            "id": "pr2024136000"
        },
        {
            "type": "Feature",
            "properties": {
                "mag": 6.4,
                "place": "17 km WSW of Brisas Barra de Suchiate, Mexico",
                "time": 1715513954137,
                "updated": 1715671918254,
                "tz": null,
                "url": "https://earthquake.usgs.gov/earthquakes/eventpage/us6000my20",
                "detail": "https://earthquake.usgs.gov/earthquakes/feed/v1.0/detail/us6000my20.geojson",
                "felt": 158,
                "cdi": 7.1,
                "mmi": 5.834,
                "alert": "yellow",
                "status": "reviewed",
                "tsunami": 0,
                "sig": 762,
                "net": "us",
                "code": "6000my20",
                "ids": ",us6000my20,",
                "sources": ",us,",
                "types": ",dyfi,ground-failure,losspager,moment-tensor,origin,phase-data,shakemap,",
                "nst": 148,
                "dmin": 0.788,
                "rms": 1.3,
                "gap": 40,
                "magType": "mww",
                "type": "earthquake",
                "title": "M 6.4 - 17 km WSW of Brisas Barra de Suchiate, Mexico"
            },
            "geometry": {
                "type": "Point",
                "coordinates": [
                    -92.363,
                    14.4518,
                    75.426
                ]
            },
            "id": "us6000my20"
        },
        {
            "type": "Feature",
            "properties": {
                "mag": 4.12,
                "place": "10 km SW of Corona, CA",
                "time": 1714596540760,
                "updated": 1716807683754,
                "tz": null,
                "url": "https://earthquake.usgs.gov/earthquakes/eventpage/ci40735352",
                "detail": "https://earthquake.usgs.gov/earthquakes/feed/v1.0/detail/ci40735352.geojson",
                "felt": 8383,
                "cdi": 4.2,
                "mmi": 4.569,
                "alert": "green",
                "status": "reviewed",
                "tsunami": 1,
                "sig": 681,
                "net": "ci",
                "code": "40735352",
                "ids": ",ew1714596540,ci40735352,at00sctr5p,us6000mvj9,",
                "sources": ",ew,ci,at,us,",
                "types": ",dyfi,focal-mechanism,impact-link,losspager,moment-tensor,nearby-cities,origin,phase-data,scitech-link,shake-alert,shakemap,",
                "nst": 210,
                "dmin": 0.03349,
                "rms": 0.21,
                "gap": 13,
                "magType": "mw",
                "type": "earthquake",
                "title": "M 4.1 - 10 km SW of Corona, CA"
            },
            "geometry": {
                "type": "Point",
                "coordinates": [
                    -117.6445,
                    33.8111667,
                    4.61
                ]
            },
            "id": "ci40735352"
        }
    ],
    "bbox": [
        -174.8692,
        -19.3769,
        4.61,
        167.8842,
        40.828333333333,
        112.235
    ]
}